OBJECT_NAME,OBJECT_ID,EPOCH,MEAN_MOTION,ECCENTRICITY,INCLINATION,RA_OF_ASC_NODE,ARG_OF_PERICENTER,MEAN_ANOMALY,EPHEMERIS_TYPE,CLASSIFICATION_TYPE,NORAD_CAT_ID,ELEMENT_SET_NO,REV_AT_EPOCH,BSTAR,MEAN_MOTION_DOT,MEAN_MOTION_DDOT
ONEWEB-0573,2023-004N,2026-07-04T22:42:09.571104,13.18687721,.00026847,87.9177,331.9359,104.1329,256.0102,0,U,55152,999,17203,-.91656709E-4,-.23E-6,0
ONEWEB-0588,2023-004P,2026-07-05T07:38:46.569120,13.18686023,.00022823,87.9177,331.8616,89.2124,270.9269,0,U,55153,999,17208,.17605572E-3,.82E-6,0
ONEWEB-0598,2023-004Q,2026-07-05T11:18:56.005056,13.11414751,.00023085,87.8879,17.4275,104.5153,255.6231,0,U,55154,999,16829,-.10440451E-2,-.357E-5,0
ONEWEB-0599,2023-004R,2026-07-05T00:31:21.677088,13.17650150,.00017615,87.9135,2.3154,97.9170,262.2162,0,U,55155,999,16983,.18073649E-4,.2E-6,0
ONEWEB-0614,2023-004S,2026-07-05T02:02:16.160064,13.11414580,.0001867,87.8875,17.5130,81.6396,278.4944,0,U,55156,999,16818,-.66770663E-3,-.224E-5,0
ONEWEB-0616,2023-004T,2026-07-05T10:38:51.151776,13.17649888,.00013173,87.9137,2.2355,118.2775,241.8490,0,U,55157,999,17010,.6349309E-5,.15E-6,0
ONEWEB-0617,2023-004U,2026-07-05T12:44:23.974656,13.11415535,.0002094,87.8882,17.4163,79.0066,281.1298,0,U,55158,999,16826,.98969452E-3,.363E-5,0
ONEWEB-0618,2023-004V,2026-07-05T09:02:20.687712,15.13315417,.00105517,86.9097,170.2490,214.0619,145.9945,0,U,55159,999,18501,.40898887E-3,.7322E-4,0
ONEWEB-0619,2023-004W,2026-07-04T22:39:35.182080,13.17650433,.0001577,87.9145,2.3169,80.1032,280.0277,0,U,55160,999,16993,.16075E-4,.19E-6,0
ONEWEB-0620,2023-004X,2026-07-05T01:37:52.129344,13.11415421,.0002083,87.8876,17.5159,92.2732,267.8635,0,U,55161,999,16817,.12283111E-2,.448E-5,0
ONEWEB-0621,2023-004Y,2026-07-05T02:16:54.921504,13.11415712,.00018451,87.8887,17.5013,81.2713,278.8624,0,U,55162,999,16815,-.15628726E-2,-.541E-5,0
ONEWEB-0622,2023-004Z,2026-07-05T11:33:34.860672,13.11415727,.00024131,87.8889,17.4269,76.8850,283.2547,0,U,55163,999,16819,-.15640195E-2,-.542E-5,0
ONEWEB-0623,2023-004AA,2026-07-05T11:17:42.985824,13.17647119,.00020167,87.9134,2.2404,67.8825,292.2520,0,U,55164,999,16999,.62872767E-4,.37E-6,0
ONEWEB-0624,2023-004AB,2026-07-05T09:48:43.625664,13.12929199,.00017941,87.8955,346.9581,89.2181,270.9153,0,U,55165,999,17046,-.63220672E-3,-.216E-5,0
ONEWEB-0625,2023-004AC,2026-07-05T11:03:09.112896,13.17649471,.00016962,87.9135,2.2386,93.1207,267.0119,0,U,55166,999,16998,.83482467E-4,.45E-6,0
ONEWEB-0626,2023-004AD,2026-07-05T10:48:35.345376,13.17635404,.00019493,87.9137,2.2399,98.4885,261.6467,0,U,55167,999,16998,.49897162E-2,.195E-4,0
ONEWEB-0627,2023-004AE,2026-07-04T23:35:28.023936,13.17647853,.00019584,87.9136,2.3335,76.3183,283.8166,0,U,55168,999,16992,-.11353585E-3,-.31E-6,0
ONEWEB-0628,2023-004AF,2026-07-04T22:32:58.987968,13.12442832,.0001816,87.8958,347.1227,72.8037,287.3290,0,U,55169,999,17036,-.12439627E-2,-.435E-5,0
ONEWEB-0629,2023-004AG,2026-07-05T11:45:40.771872,13.17649309,.00016232,87.9136,2.2285,84.0605,276.0712,0,U,55170,999,16999,.10307547E-3,.53E-6,0
ONEWEB-0631,2023-004AH,2026-07-05T09:18:19.632672,13.18685884,.00023635,87.9185,331.8157,94.7053,265.4349,0,U,55171,999,17207,.26249122E-4,.23E-6,0
ONEWEB-0709,2023-004AJ,2026-07-05T12:22:25.792320,13.11416646,.00024683,87.8879,17.4291,105.4878,254.6523,0,U,55172,999,16827,.12761974E-2,.465E-5,0
ONEWEB-0710,2023-004AK,2026-07-05T01:10:13.724544,13.17647723,.00019645,87.9135,2.3116,86.3545,273.7812,0,U,55173,999,16993,-.122745E-5,.12E-6,0
ONEWEB-0711,2023-004AL,2026-07-05T11:40:54.302304,13.11416881,.00022281,87.8882,17.4228,71.1680,288.9690,0,U,55174,999,16823,-.14593888E-2,-.505E-5,0
ONEWEB-0713,2023-004AM,2026-07-05T12:07:46.667136,13.11417479,.00020327,87.8883,17.4208,78.3634,281.7722,0,U,55175,999,16822,.52417025E-3,.198E-5,0
ONEWEB-0715,2023-004AN,2026-07-05T12:00:26.745984,13.11417390,.00024795,87.8881,17.4223,96.2896,263.8514,0,U,55176,999,16826,-.70315925E-4,-.12E-6,0
ONEWEB-0716,2023-004AP,2026-07-05T01:00:30.394080,13.17647913,.00016764,87.9135,2.3157,95.0351,265.0972,0,U,55177,999,16993,.77129507E-4,.43E-6,0
ONEWEB-0717,2023-004AQ,2026-07-05T00:36:13.614048,13.17649961,.00022955,87.9146,2.3083,80.8619,279.2772,0,U,55178,999,16998,.35209069E-4,.27E-6,0
ONEWEB-0719,2023-004AR,2026-07-05T11:46:53.478336,13.17650508,.00016675,87.9145,2.1961,89.5924,270.5399,0,U,55179,999,16999,.98234167E-4,.51E-6,0
ONEWEB-0530,2023-029A,2026-07-05T06:31:02.921376,13.20772469,.00019979,87.9183,270.8641,86.1920,273.9441,0,U,55796,999,16353,-.60709435E-4,-.12E-6,0
ONEWEB-0534,2023-029B,2026-07-05T06:14:03.829920,13.20772672,.00020003,87.9186,270.8671,102.8446,257.2911,0,U,55797,999,16353,.17006562E-3,.82E-6,0
