ONEWEB-0573             
1 55152U 23004N   26185.94594411 -.00000023  00000+0 -91657-4 0  9994
2 55152  87.9177 331.9359 0002684 104.1329 256.0102 13.18687721172035
ONEWEB-0588             
1 55153U 23004P   26186.31859455  .00000082  00000+0  17606-3 0  9993
2 55153  87.9177 331.8616 0002282  89.2124 270.9269 13.18686023172089
ONEWEB-0598             
1 55154U 23004Q   26186.47148154 -.00000357  00000+0 -10440-2 0  9993
2 55154  87.8879  17.4275 0002308 104.5153 255.6231 13.11414751168295
ONEWEB-0599             
1 55155U 23004R   26186.02177867  .00000020  00000+0  18074-4 0  9996
2 55155  87.9135   2.3154 0001761  97.9170 262.2162 13.17650150169836
ONEWEB-0614             
1 55156U 23004S   26186.08490926 -.00000224  00000+0 -66771-3 0  9991
2 55156  87.8875  17.5130 0001867  81.6396 278.4944 13.11414580168189
ONEWEB-0616             
1 55157U 23004T   26186.44364759  .00000015  00000+0  63493-5 0  9992
2 55157  87.9137   2.2355 0001317 118.2775 241.8490 13.17649888170102
ONEWEB-0617             
1 55158U 23004U   26186.53083304  .00000363  00000+0  98969-3 0  9997
2 55158  87.8882  17.4163 0002094  79.0066 281.1298 13.11415535168265
ONEWEB-0618             
1 55159U 23004V   26186.37662833  .00007322  00000+0  40899-3 0  9991
2 55159  86.9097 170.2490 0010551 214.0619 145.9945 15.13315417185017
ONEWEB-0619             
1 55160U 23004W   26185.94415720  .00000019  00000+0  16075-4 0  9992
2 55160  87.9145   2.3169 0001576  80.1032 280.0277 13.17650433169934
ONEWEB-0620             
1 55161U 23004X   26186.06796446  .00000448  00000+0  12283-2 0  9995
2 55161  87.8876  17.5159 0002083  92.2732 267.8635 13.11415421168173
ONEWEB-0621             
1 55162U 23004Y   26186.09508011 -.00000541  00000+0 -15629-2 0  9991
2 55162  87.8887  17.5013 0001845  81.2713 278.8624 13.11415712168158
ONEWEB-0622             
1 55163U 23004Z   26186.48165348 -.00000542  00000+0 -15640-2 0  9991
2 55163  87.8889  17.4269 0002413  76.8850 283.2547 13.11415727168191
ONEWEB-0623             
1 55164U 23004AA  26186.47063641  .00000037  00000+0  62873-4 0  9993
2 55164  87.9134   2.2404 0002016  67.8825 292.2520 13.17647119169998
ONEWEB-0624             
1 55165U 23004AB  26186.40883826 -.00000216  00000+0 -63221-3 0  9990
2 55165  87.8955 346.9581 0001794  89.2181 270.9153 13.12929199170463
ONEWEB-0625             
1 55166U 23004AC  26186.46052214  .00000045  00000+0  83482-4 0  9996
2 55166  87.9135   2.2386 0001696  93.1207 267.0119 13.17649471169985
ONEWEB-0626             
1 55167U 23004AD  26186.45040909  .00001950  00000+0  49897-2 0  9990
2 55167  87.9137   2.2399 0001949  98.4885 261.6467 13.17635404169980
ONEWEB-0627             
1 55168U 23004AE  26185.98296324 -.00000031  00000+0 -11354-3 0  9991
2 55168  87.9136   2.3335 0001958  76.3183 283.8166 13.17647853169924
ONEWEB-0628             
1 55169U 23004AF  26185.93957162 -.00000435  00000+0 -12440-2 0  9995
2 55169  87.8958 347.1227 0001816  72.8037 287.3290 13.12442832170360
ONEWEB-0629             
1 55170U 23004AG  26186.49005523  .00000053  00000+0  10308-3 0  9990
2 55170  87.9136   2.2285 0001623  84.0605 276.0712 13.17649309169990
ONEWEB-0631             
1 55171U 23004AH  26186.38772723  .00000023  00000+0  26249-4 0  9991
2 55171  87.9185 331.8157 0002363  94.7053 265.4349 13.18685884172071
ONEWEB-0709             
1 55172U 23004AJ  26186.51557630  .00000465  00000+0  12762-2 0  9998
2 55172  87.8879  17.4291 0002468 105.4878 254.6523 13.11416646168270
ONEWEB-0710             
1 55173U 23004AK  26186.04876996  .00000012  00000+0 -12274-5 0  9996
2 55173  87.9135   2.3116 0001964  86.3545 273.7812 13.17647723169939
ONEWEB-0711             
1 55174U 23004AL  26186.48673961 -.00000505  00000+0 -14594-2 0  9994
2 55174  87.8882  17.4228 0002228  71.1680 288.9690 13.11416881168232
ONEWEB-0713             
1 55175U 23004AM  26186.50540124  .00000198  00000+0  52417-3 0  9995
2 55175  87.8883  17.4208 0002032  78.3634 281.7722 13.11417479168223
ONEWEB-0715             
1 55176U 23004AN  26186.50030956 -.00000012  00000+0 -70316-4 0  9999
2 55176  87.8881  17.4223 0002479  96.2896 263.8514 13.11417390168269
ONEWEB-0716             
1 55177U 23004AP  26186.04201845  .00000043  00000+0  77130-4 0  9999
2 55177  87.9135   2.3157 0001676  95.0351 265.0972 13.17647913169932
ONEWEB-0717             
1 55178U 23004AQ  26186.02515757  .00000027  00000+0  35209-4 0  9991
2 55178  87.9146   2.3083 0002295  80.8619 279.2772 13.17649961169985
ONEWEB-0719             
1 55179U 23004AR  26186.49089674  .00000051  00000+0  98234-4 0  9991
2 55179  87.9145   2.1961 0001667  89.5924 270.5399 13.17650508169994
ONEWEB-0530             
1 55796U 23029A   26186.27156159 -.00000012  00000+0 -60709-4 0  9997
2 55796  87.9183 270.8641 0001997  86.1920 273.9441 13.20772469163539
ONEWEB-0534             
1 55797U 23029B   26186.25976655  .00000082  00000+0  17007-3 0  9994
2 55797  87.9186 270.8671 0002000 102.8446 257.2911 13.20772672163534
